NORAD_CAT_ID,EPOCH,MEAN_MOTION,ECCENTRICITY,INCLINATION,RA_OF_ASC_NODE,ARG_OF_PERICENTER,MEAN_ANOMALY,APOAPSIS,PERIAPSIS,BSTAR,COUNTRY_CODE,RCS_SIZE,NAME,LINE1,LINE2
21498,2025-08-08T19:10:03.152640,12.95102566,0.0265938,99.6878,167.8961,46.0384,333.4344,1485.036,1077.647,0.00075236,US,SMALL,0 DELTA 1 DEB,1 21498U 75052FT  25220.79864760  .00000212  00000-0  75236-3 0  9992,2 21498  99.6878 167.8961 0265938  46.0384 333.4344 12.95102566615709
21499,2025-08-06T15:33:41.176800,13.39681707,0.0131154,99.6443,0.7605,310.7026,63.0601,1208.683,1012.251,0.0020271,US,SMALL,0 DELTA 1 DEB,1 21499U 75052FU  25218.64839325  .00001112  00000-0  20271-2 0  9991,2 21499  99.6443   0.7605 0131154 310.7026  63.0601 13.39681707652839
21500,2025-08-09T04:14:45.152736,14.38075563,0.0164587,100.0255,353.5103,247.6318,239.1149,882.43,647.301,0.0010667,US,SMALL,0 DELTA 1 DEB,1 21500U 75052FV  25221.17691149  .00003717  00000-0  10667-2 0  9997,2 21500 100.0255 353.5103 0164587 247.6318 239.1149 14.38075563768300
21501,2025-08-08T18:29:36.132576,12.47676888,0.0549994,99.7929,166.349,120.965,316.7495,1906.104,1042.354,0.0012108,US,SMALL,0 DELTA 1 DEB,1 21501U 75052FW  25220.77055709  .00000278  00000-0  12108-2 0  9990,2 21501  99.7929 166.3490 0549994 120.9650 316.7495 12.47676888558390
21504,2025-08-09T10:05:38.313312,12.48503354,0.054857,99.7915,199.8494,92.7777,54.8916,1901.33,1040.196,0.00095542,US,SMALL,0 DELTA 1 DEB,1 21504U 75052FZ  25221.42058233  .00000216  00000-0  95542-3 0  9997,2 21504  99.7915 199.8494 0548570  92.7777  54.8916 12.48503354556347
21506,2025-08-08T14:26:53.570688,13.1511108,0.0175884,99.6143,96.2753,140.2707,293.3818,1336.802,1070.106,0.0014497,US,SMALL,0 DELTA 1 DEB,1 21506U 75052GB  25220.60200892  .00000549  00000-0  14497-2 0  9996,2 21506  99.6143  96.2753 0175884 140.2707 293.3818 13.15111080635508
21512,2025-08-08T23:30:52.413120,13.40487956,0.0035255,99.9208,118.3364,231.4498,148.5958,1133.855,1081.074,0.00022448,US,SMALL,0 DELTA 1 DEB,1 21512U 75052GH  25220.97977330  .00000079  00000-0  22448-3 0  9995,2 21512  99.9208 118.3364 0035255 231.4498 148.5958 13.40487956666989
21514,2025-08-07T16:20:09.264192,13.14793301,0.0308409,99.8642,269.4237,238.8,250.3743,1438.536,970.815,0.0023037,US,SMALL,0 DELTA 1 DEB,1 21514U 75052GK  25219.68066278  .00001050  00000-0  23037-2 0  9997,2 21514  99.8642 269.4237 0308409 238.8000 250.3743 13.14793301621499
21515,2025-08-09T04:03:10.007712,12.98654745,0.027291,99.7384,299.3383,220.5518,167.361,1476.021,1058.714,0.00034816,US,SMALL,0 DELTA 1 DEB,1 21515U 75052GL  25221.16886583  .00000083  00000-0  34816-3 0  9996,2 21515  99.7384 299.3383 0272910 220.5518 167.3610 12.98654745622293
21516,2025-08-08T16:11:13.278336,13.32841899,0.0069251,99.7741,3.7009,342.0528,34.8433,1188.102,1084.028,0.00028862,US,SMALL,0 DELTA 1 DEB,1 21516U 75052GM  25220.67445924  .00000100  00000-0  28862-3 0  9996,2 21516  99.7741   3.7009 0069251 342.0528  34.8433 13.32841899652624
21523,2025-08-04T17:55:54.486624,12.06075599,0.0715029,99.6016,316.0818,349.3519,169.9708,2228.08,1079.47,0.00026953,US,SMALL,0 DELTA 1 DEB,1 21523U 75052GU  25216.74715841  .00000020  00000-0  26953-3 0  9995,2 21523  99.6016 316.0818 0715029 349.3519 169.9708 12.06075599468867
21529,2025-08-08T05:28:26.471424,14.38444633,0.0053336,89.574,313.1962,111.3448,249.3457,801.735,725.553,0.00023234,US,SMALL,0 SCOUT G-1 DEB,1 21529U 91045C   25220.22808416  .00000734  00000-0  23234-3 0  9991,2 21529  89.5740 313.1962 0053336 111.3448 249.3457 14.38444633780561
21532,2025-08-08T22:32:29.226624,14.36248719,0.0061465,89.5478,215.113,240.3693,148.0002,814.863,726.98,0.00022909,US,SMALL,0 SCOUT G-1 DEB,1 21532U 91045D   25220.93922716  .00000696  00000-0  22909-3 0  9998,2 21532  89.5478 215.1130 0061465 240.3693 148.0002 14.36248719778280
21542,2025-08-09T03:31:25.208256,13.38383245,0.0051511,100.317,93.6047,41.8259,112.6946,1153.909,1076.71,0.00037413,US,SMALL,0 DELTA 1 DEB,1 21542U 75052GW  25221.14681954  .00000154  00000-0  37413-3 0  9994,2 21542 100.3170  93.6047 0051511  41.8259 112.6946 13.38383245671620
21545,2025-08-08T22:00:16.369632,13.22171638,0.0230934,99.6489,19.127,95.3448,55.4128,1350.899,1001.978,0.00031383,US,SMALL,0 DELTA 1 DEB,1 21545U 75052GZ  25220.91685613  .00000112  00000-0  31383-3 0  9991,2 21545  99.6489  19.1270 0230934  95.3448  55.4128 13.22171638651616
21546,2025-08-08T18:23:05.246016,12.28451888,0.0606325,99.5336,224.4891,235.9816,304.6125,2037.005,1074.879,0.0020324,US,SMALL,0 DELTA 1 DEB,1 21546U 75052HA  25220.76603294  .00000396  00000-0  20324-2 0  9996,2 21546  99.5336 224.4891 0606325 235.9816 304.6125 12.28451888530175
21547,2025-08-08T13:42:35.796096,13.5712033,0.0248189,99.7754,88.4451,284.9461,135.6537,1230.441,861.915,0.00048207,US,SMALL,0 DELTA 1 DEB,1 21547U 75052HB  25220.57124764  .00000372  00000-0  48207-3 0  9991,2 21547  99.7754  88.4451 0248189 284.9461 135.6537 13.57120330688836
21548,2025-08-09T06:40:44.776992,12.95697268,0.0246131,99.8158,329.1538,10.9348,14.8324,1467.463,1090.531,0.00017202,US,SMALL,0 DELTA 1 DEB,1 21548U 75052HC  25221.27829603  .00000018  00000-0  17202-3 0  9992,2 21548  99.8158 329.1538 0246131  10.9348  14.8324 12.95697268619378
21549,2025-08-08T23:11:32.208864,13.09200741,0.0199228,99.7706,229.6277,247.3922,139.5739,1377.755,1074.754,0.00088121,US,SMALL,0 DELTA 1 DEB,1 21549U 75052HD  25220.96634501  .00000293  00000-0  88121-3 0  9992,2 21549  99.7706 229.6277 0199228 247.3922 139.5739 13.09200741632517
21550,2025-08-08T20:07:12.815328,12.45889027,0.0546924,99.8398,166.0674,283.1888,96.0084,1911.615,1051.864,-0.0011765,US,SMALL,0 DELTA 1 DEB,1 21550U 75052HE  25220.83834277 -.00000326  00000-0 -11765-2 0  9990,2 21550  99.8398 166.0674 0546924 283.1888  96.0084 12.45889027553566
21551,2025-08-08T17:01:31.747008,13.24526836,0.0105995,99.8015,128.9708,332.4665,82.1481,1247.46,1087.501,0.00034138,US,SMALL,0 DELTA 1 DEB,1 21551U 75052HF  25220.70939522  .00000110  00000-0  34138-3 0  9995,2 21551  99.8015 128.9708 0105995 332.4665  82.1481 13.24526836653256
21565,2025-08-08T10:16:39.091008,12.81214961,0.0364084,99.8139,25.4109,291.798,95.6141,1617.472,1055.71,0.0023343,US,SMALL,0 DELTA 1 DEB,1 21565U 75052HK  25220.42823022  .00000676  00000-0  23343-2 0  9998,2 21565  99.8139  25.4109 0364084 291.7980  95.6141 12.81214961594090
21566,2025-08-08T15:13:06.876768,12.83811692,0.0326847,99.6056,267.5168,114.7179,38.7024,1577.998,1074.371,0.000376,US,SMALL,0 DELTA 1 DEB,1 21566U 75052HL  25220.63410737  .00000080  00000-0  37600-3 0  9998,2 21566  99.6056 267.5168 0326847 114.7179  38.7024 12.83811692603770
21567,2025-08-07T22:44:42.773856,13.61996971,0.0243839,99.8253,19.7032,303.6329,187.052,1209.047,847.844,0.00070324,US,SMALL,0 DELTA 1 DEB,1 21567U 75052HM  25219.94771729  .00000613  00000-0  70324-3 0  9994,2 21567  99.8253  19.7032 0243839 303.6329 187.0520 13.61996971693469
21568,2025-08-07T13:08:42.843840,13.59469373,0.0240678,99.9257,59.8031,174.3043,246.3619,1216.104,859.142,0.00073306,US,SMALL,0 DELTA 1 DEB,1 21568U 75052HN  25219.54771810  .00000610  00000-0  73306-3 0  9992,2 21568  99.9257  59.8031 0240678 174.3043 246.3619 13.59469373685112
21570,2025-08-08T15:48:10.455840,12.08755158,0.0705149,99.5173,115.3307,333.3047,48.6031,2207.432,1076.368,-0.00408,US,SMALL,0 DELTA 1 DEB,1 21570U 75052HQ  25220.65845435 -.00000810  00000-0 -40800-2 0  9990,2 21570  99.5173 115.3307 0705149 333.3047  48.6031 12.08755158310301
21588,2025-08-09T11:52:47.850528,2.54248809,0.7017086,18.4978,310.6457,231.8963,41.7371,32209.463,385.86,0.00060909,US,MEDIUM,0 CRRES DEB (CANISTER),1 21588U 90065D   25221.49499827 -.00000011  00000-0  60909-3 0  9998,2 21588  18.4978 310.6457 7017086 231.8963  41.7371  2.54248809302897
21589,2025-08-09T08:00:21.660192,2.66032879,0.6943647,18.126,48.7269,36.6313,355.1419,30899.801,346.187,0.00090513,US,MEDIUM,0 CRRES DEB (CANISTER),1 21589U 90065E   25221.33358403  .00000980  00000-0  90513-3 0  9994,2 21589  18.1260  48.7269 6943647  36.6313 355.1419  2.66032879315226
21590,2025-08-05T14:59:44.769408,2.67693957,0.6927934,20.1667,122.588,28.116,356.1144,30711.004,352.768,0.001361387,US,MEDIUM,0 CRRES DEB (CANISTER),1 21590U 90065F   25217.62482372  .00000734  00000-0  13614-2 0  9999,2 21590  20.1667 122.5880 6927934  28.1160 356.1144  2.67693957121175
21591,2025-08-08T05:03:25.513344,2.41022126,0.7036687,18.4975,106.131,332.0181,280.0498,33654.641,585.053,-0.00094028,US,MEDIUM,0 CRRES DEB (CANISTER),1 21591U 90065G   25220.21071196 -.00000039  00000-0 -94028-3 0  9996,2 21591  18.4975 106.1310 7036687 332.0181 280.0498  2.41022126277570
21594,2025-08-08T03:17:54.413376,2.44830863,0.7070156,16.5967,190.2,260.2585,20.2921,33316.202,434.821,0.00026661,US,MEDIUM,0 CRRES DEB (CANISTER),1 21594U 90065K   25220.13743534  .00000198  00000-0  26661-3 0  9994,2 21594  16.5967 190.2000 7070156 260.2585  20.2921  2.44830863299951
21598,2025-08-08T13:47:08.495232,12.84208217,0.0352534,99.567,247.6365,86.3657,62.0344,1596.146,1053.051,0.00051886,US,SMALL,0 DELTA 1 DEB,1 21598U 75052HS  25220.57440388  .00000130  00000-0  51886-3 0  9999,2 21598  99.5670 247.6365 0352534  86.3657  62.0344 12.84208217604007
21599,2025-08-03T07:24:50.937696,12.72289382,0.0432522,99.8238,152.6295,122.9494,27.5522,1707.868,1037.392,0.0057728,US,SMALL,0 DELTA 1 DEB,1 21599U 75052HT  25215.30892289  .00001694  00000-0  57728-2 0  9992,2 21599  99.8238 152.6295 0432522 122.9494  27.5522 12.72289382578878
21601,2025-08-03T23:48:14.903424,12.50167309,0.0544116,99.78,217.5084,37.4567,351.1306,1890.489,1037.105,0.00070227,US,SMALL,0 DELTA 1 DEB,1 21601U 75052HV  25215.99183916  .00000152  00000-0  70227-3 0  9999,2 21601  99.7800 217.5084 0544116  37.4567 351.1306 12.50167309556745
21602,2025-08-07T00:37:43.682592,13.58259521,0.00756897,99.6671,250.3531,236.137,187.8576,1098.189,985.863,0.0022085539,US,SMALL,0 DELTA 1 DEB,1 21602U 75052HW  25219.02620003  .00001588  00000-0  22086-2 0  9994,2 21602  99.6671 250.3531 0075690 236.1370 187.8576 13.58259521660521
